IRIDIUM 155             
1 43573U 18061E   20234.47364913  .00000049  00000-0  10339-4 0  9999
2 43573  86.3962 225.0156 0002829  91.4997 268.6523 14.34217630108674
IRIDIUM 154             
1 43574U 18061F   20234.52437781  .00000043  00000-0  82097-5 0  9995
2 43574  86.3932 225.0301 0001879 100.8758 259.2649 14.34223683108735
IRIDIUM 163             
1 43575U 18061G   20234.50534231  .00000046  00000-0  93897-5 0  9995
2 43575  86.3967 225.0145 0001616  84.6661 275.4719 14.34215192108702
IRIDIUM 156             
1 43576U 18061H   20234.47998712  .00000046  00000-0  94614-5 0  9998
2 43576  86.3964 225.0303 0002513  81.8175 278.3306 14.34216369108691
IRIDIUM 164             
1 43577U 18061J   20234.46095663  .00000048  00000-0  10219-4 0  9991
2 43577  86.3965 225.0463 0002021  86.8620 273.2807 14.34218743108737
IRIDIUM 159             
1 43578U 18061K   20234.49900445  .00000039  00000-0  68343-5 0  9990
2 43578  86.3956 225.0103 0001820  93.8377 266.3027 14.34221659108706
IRIDIUM 180             
1 43922U 19002A   20234.49851007  .00000074  00000-0  19223-4 0  9999
2 43922  86.4026 161.9431 0001115  72.1410 287.9907 14.34218227 84318
IRIDIUM 176             
1 43923U 19002B   20234.53691102  .00000123  00000-0  15559-4 0  9996
2 43923  86.6161 161.9554 0002214  84.5327 275.6143 14.72259074 86508
IRIDIUM 168             
1 43924U 19002C   20234.56194322  .00000072  00000-0  18704-4 0  9990
2 43924  86.4027 161.9337 0001922  85.9136 274.2280 14.34217598 84301
IRIDIUM 173             
1 43925U 19002D   20234.54924002  .00000078  00000-0  20638-4 0  9990
2 43925  86.4025 161.9144 0002009  83.0848 277.0576 14.34219763 84295
IRIDIUM 169             
1 43926U 19002E   20234.41922047  .00000049  00000-0  93154-5 0  9996
2 43926  86.4270 193.5081 0006781 122.4022 237.7834 14.38605353 84605
IRIDIUM 172             
1 43927U 19002F   20234.54290131  .00000074  00000-0  19277-4 0  9994
2 43927  86.4025 161.9183 0001902  83.2158 276.9255 14.34219388 84292
IRIDIUM 175             
1 43928U 19002G   20234.39479362  .00000118  00000-0  14721-4 0  9991
2 43928  86.6145 161.8938 0003069  73.8084 286.3470 14.72259156 86479
IRIDIUM 171             
1 43929U 19002H   20234.38436037  .00000072  00000-0  18497-4 0  9996
2 43929  86.4034 162.0545 0001929  86.6712 273.4705 14.34216822 84269
IRIDIUM 170             
1 43930U 19002J   20234.54313994  .00000125  00000-0  15867-4 0  9999
2 43930  86.6161 161.9597 0002314  78.3672 281.7805 14.72251272 86514
IRIDIUM 167             
1 43931U 19002K   20234.37800611  .00000065  00000-0  15981-4 0  9998
2 43931  86.4025 161.9908 0001265  80.5762 279.5577 14.34219916 84265
